{
  "links": {
    "next": "https://api.nasa.gov/neo/rest/v1/neo/browse?page=1&size=20&api_key=DEMO_KEY",
    "self": "https://api.nasa.gov/neo/rest/v1/neo/browse?page=0&size=20&api_key=DEMO_KEY"
  },
  "page": {
    "size": 20,
    "total_elements": 19055,
    "total_pages": 952,
    "number": 0
  },
  "near_earth_objects": [
    {
      "links": {
        "self": "https://api.nasa.gov/neo/rest/v1/neo/2356285?api_key=DEMO_KEY"
      },
      "neo_reference_id": "2356285",
      "name": "356285 (2010 DE)",
      "nasa_jpl_url": "http://ssd.jpl.nasa.gov/sbdb.cgi?sstr=2356285",
      "absolute_magnitude_h": 17.3,
      "estimated_diameter": {
        "kilometers": {
          "estimated_diameter_min": 0.9216265485,
          "estimated_diameter_max": 2.0608196123
        },
        "meters": {
          "estimated_diameter_min": 921.6265485028,
          "estimated_diameter_max": 2060.8196123208
        },
        "miles": {
          "estimated_diameter_min": 0.5726720101,
          "estimated_diameter_max": 1.2805335433
        },
        "feet": {
          "estimated_diameter_min": 3023.70924539,
          "estimated_diameter_max": 6761.2194168867
        }
      },
      "is_potentially_hazardous_asteroid": false,
      "close_approach_data": [
        {
          "close_approach_date": "1957-09-17",
          "epoch_date_close_approach": -387824400000,
          "relative_velocity": {
            "kilometers_per_second": "13.6651845862",
            "kilometers_per_hour": "49194.6645103988",
            "miles_per_hour": "30567.6514009198"
          },
          "miss_distance": {
            "astronomical": "0.0706313644",
            "lunar": "27.4755992889",
            "kilometers": "10566302",
            "miles": "6565595.5"
          },
          "orbiting_body": "Mars"
        },
        {
          "close_approach_date": "2083-09-21",
          "epoch_date_close_approach": 3588735600000,
          "relative_velocity": {
            "kilometers_per_second": "13.7306751395",
            "kilometers_per_hour": "49430.4305023714",
            "miles_per_hour": "30714.147219654"
          },
          "miss_distance": {
            "astronomical": "0.0566806402",
            "lunar": "22.0487689972",
            "kilometers": "8479303",
            "miles": "5268794.5"
          },
          "orbiting_body": "Mars"
        },
        {
          "close_approach_date": "2108-02-07",
          "epoch_date_close_approach": 4358044800000,
          "relative_velocity": {
            "kilometers_per_second": "11.1953716556",
            "kilometers_per_hour": "40303.3379601888",
            "miles_per_hour": "25042.9268564295"
          },
          "miss_distance": {
            "astronomical": "0.4970379868",
            "lunar": "193.3477783203",
            "kilometers": "74355824",
            "miles": "46202568"
          },
          "orbiting_body": "Earth"
        },
        {
          "close_approach_date": "2191-02-11",
          "epoch_date_close_approach": 6977692800000,
          "relative_velocity": {
            "kilometers_per_second": "11.3914067232",
            "kilometers_per_hour": "41009.0642035099",
            "miles_per_hour": "25481.4376991198"
          },
          "miss_distance": {
            "astronomical": "0.4952583054",
            "lunar": "192.6554718018",
            "kilometers": "74089584",
            "miles": "46037136"
          },
          "orbiting_body": "Earth"
        }
      ],
      "orbital_data": {
        "orbit_id": "50",
        "orbit_determination_date": "2017-04-06 09:22:58",
        "orbit_uncertainty": "1",
        "minimum_orbit_intersection": ".49911",
        "jupiter_tisserand_invariant": "3.531",
        "epoch_osculation": "2458200.5",
        "eccentricity": ".3969536734224591",
        "semi_major_axis": "2.113367725836065",
        "inclination": "23.98537313144806",
        "ascending_node_longitude": "177.017299268736",
        "orbital_period": "1122.176147083447",
        "perihelion_distance": "1.274458643772971",
        "perihelion_argument": "276.9402187487836",
        "aphelion_distance": "2.952276807899159",
        "perihelion_time": "2458423.516659408651",
        "mean_anomaly": "288.4550847068183",
        "mean_motion": ".3208052505265288",
        "equinox": "J2000"
      }
    },
    {
      "links": {
        "self": "https://api.nasa.gov/neo/rest/v1/neo/2385580?api_key=DEMO_KEY"
      },
      "neo_reference_id": "2385580",
      "name": "385580 (2004 XO14)",
      "nasa_jpl_url": "http://ssd.jpl.nasa.gov/sbdb.cgi?sstr=2385580",
      "absolute_magnitude_h": 16.1,
      "estimated_diameter": {
        "kilometers": {
          "estimated_diameter_min": 1.6016033798,
          "estimated_diameter_max": 3.5812940302
        },
        "meters": {
          "estimated_diameter_min": 1601.6033797856,
          "estimated_diameter_max": 3581.2940301941
        },
        "miles": {
          "estimated_diameter_min": 0.9951898937,
          "estimated_diameter_max": 2.2253122528
        },
        "feet": {
          "estimated_diameter_min": 5254.6044325359,
          "estimated_diameter_max": 11749.652706022
        }
      },
      "is_potentially_hazardous_asteroid": false,
      "close_approach_data": [
        {
          "close_approach_date": "1969-12-22",
          "epoch_date_close_approach": -835200000,
          "relative_velocity": {
            "kilometers_per_second": "14.3383400044",
            "kilometers_per_hour": "51618.0240158576",
            "miles_per_hour": "32073.4327558533"
          },
          "miss_distance": {
            "astronomical": "0.4748664782",
            "lunar": "184.7230529785",
            "kilometers": "71039016",
            "miles": "44141596"
          },
          "orbiting_body": "Earth"
        },
        {
          "close_approach_date": "2017-12-24",
          "epoch_date_close_approach": 1514102400000,
          "relative_velocity": {
            "kilometers_per_second": "12.9033755893",
            "kilometers_per_hour": "46452.152121638",
            "miles_per_hour": "28863.5608558034"
          },
          "miss_distance": {
            "astronomical": "0.4727682065",
            "lunar": "183.906829834",
            "kilometers": "70725120",
            "miles": "43946552"
          },
          "orbiting_body": "Earth"
        },
        {
          "close_approach_date": "2126-12-23",
          "epoch_date_close_approach": 4953686400000,
          "relative_velocity": {
            "kilometers_per_second": "15.1515044677",
            "kilometers_per_hour": "54545.4160836314",
            "miles_per_hour": "33892.4003437431"
          },
          "miss_distance": {
            "astronomical": "0.4653045231",
            "lunar": "181.0034637451",
            "kilometers": "69608568",
            "miles": "43252756"
          },
          "orbiting_body": "Earth"
        },
        {
          "close_approach_date": "2174-12-25",
          "epoch_date_close_approach": 6468624000000,
          "relative_velocity": {
            "kilometers_per_second": "13.2321028267",
            "kilometers_per_hour": "47635.5701760613",
            "miles_per_hour": "29598.8908130088"
          },
          "miss_distance": {
            "astronomical": "0.4647477535",
            "lunar": "180.7868804932",
            "kilometers": "69525272",
            "miles": "43201004"
          },
          "orbiting_body": "Earth"
        }
      ],
      "orbital_data": {
        "orbit_id": "138",
        "orbit_determination_date": "2018-03-23 06:44:50",
        "orbit_uncertainty": "0",
        "minimum_orbit_intersection": ".464596",
        "jupiter_tisserand_invariant": "3.021",
        "epoch_osculation": "2458200.5",
        "eccentricity": ".5549782115767298",
        "semi_major_axis": "2.668998424256101",
        "inclination": "25.93255637812593",
        "ascending_node_longitude": "129.512715576046",
        "orbital_period": "1592.652042669773",
        "perihelion_distance": "1.18776245206134",
        "perihelion_argument": "276.2949266467159",
        "aphelion_distance": "4.150234396450861",
        "perihelion_time": "2458057.677847140404",
        "mean_anomaly": "32.28324433205493",
        "mean_motion": ".2260380738259247",
        "equinox": "J2000"
      }
    }
  ]
}
